ARSAT 2                 
1 40941U 15054B   17345.00300195 -.00000232  00000-0  00000-0 0  9999
2 40941   0.0161 344.8633 0001928 283.1823  91.9323  1.00269945  8142
